{
  "type": "FeatureCollection",
  "features": [
    {
      "type": "Feature",
      "properties": {
        "norad_id": 31655,
        "name": "FENGYUN 1C DEB",
        "group": "fengyun-1c-debris",
        "lat": 47.72916007400163,
        "lon": 136.53167345294298,
        "alt_km": 829.9427142491313,
        "timestamp": "2025-12-26T21:25:53.293797+00:00",
        "meta_object_name": "FENGYUN 1C DEB",
        "meta_object_id": "1999-025CBM",
        "meta_epoch": "2025-12-21T19:28:59.991744",
        "meta_mean_motion": 13.63924147,
        "meta_eccentricity": 0.02903525,
        "meta_inclination": 99.2852,
        "meta_ra_of_asc_node": 301.3055,
        "meta_arg_of_pericenter": 114.1713,
        "meta_mean_anomaly": 279.1459,
        "meta_ephemeris_type": 0,
        "meta_classification_type": "U",
        "meta_norad_cat_id": 31655,
        "meta_element_set_no": 999,
        "meta_rev_at_epoch": 59843,
        "meta_bstar": 0.0030683353,
        "meta_mean_motion_dot": 3.207e-05,
        "meta_mean_motion_ddot": 0,
        "tle_line1": "1 31655U 99025CBM 25355.81180546  .00003207  00000+0  30683-2 0  9991",
        "tle_line2": "2 31655  99.2852 301.3055 0290352 114.1713 279.1459 13.63924147598439"
      },
      "geometry": {
        "type": "Point",
        "coordinates": [
          136.53167345294298,
          47.72916007400163
        ]
      }
    },
    {
      "type": "Feature",
      "properties": {
        "norad_id": 31656,
        "name": "FENGYUN 1C DEB",
        "group": "fengyun-1c-debris",
        "lat": 10.160731618990972,
        "lon": 172.54670084599618,
        "alt_km": 751.0575950472339,
        "timestamp": "2025-12-26T21:25:53.293807+00:00",
        "meta_object_name": "FENGYUN 1C DEB",
        "meta_object_id": "1999-025CBN",
        "meta_epoch": "2025-12-26T05:48:21.729024",
        "meta_mean_motion": 14.47216894,
        "meta_eccentricity": 0.00226152,
        "meta_inclination": 99.1945,
        "meta_ra_of_asc_node": 350.1766,
        "meta_arg_of_pericenter": 14.3802,
        "meta_mean_anomaly": 5.0199,
        "meta_ephemeris_type": 0,
        "meta_classification_type": "U",
        "meta_norad_cat_id": 31656,
        "meta_element_set_no": 999,
        "meta_rev_at_epoch": 96651,
        "meta_bstar": 0.0022157441,
        "meta_mean_motion_dot": 8.078e-05,
        "meta_mean_motion_ddot": 0,
        "tle_line1": "1 31656U 99025CBN 25360.24191816  .00008078  00000+0  22157-2 0  9995",
        "tle_line2": "2 31656  99.1945 350.1766 0022615  14.3802   5.0199 14.47216894966519"
      },
      "geometry": {
        "type": "Point",
        "coordinates": [
          172.54670084599618,
          10.160731618990972
        ]
      }
    },
    {
      "type": "Feature",
      "properties": {
        "norad_id": 31657,
        "name": "FENGYUN 1C DEB",
        "group": "fengyun-1c-debris",
        "lat": -1.1783525939653845,
        "lon": -89.85830053865939,
        "alt_km": 805.6442626910539,
        "timestamp": "2025-12-26T21:25:53.293818+00:00",
        "meta_object_name": "FENGYUN 1C DEB",
        "meta_object_id": "1999-025CBP",
        "meta_epoch": "2025-12-15T00:08:35.623968",
        "meta_mean_motion": 13.97064465,
        "meta_eccentricity": 0.01478678,
        "meta_inclination": 102.2166,
        "meta_ra_of_asc_node": 254.1396,
        "meta_arg_of_pericenter": 48.4638,
        "meta_mean_anomaly": 312.9088,
        "meta_ephemeris_type": 0,
        "meta_classification_type": "U",
        "meta_norad_cat_id": 31657,
        "meta_element_set_no": 999,
        "meta_rev_at_epoch": 62896,
        "meta_bstar": 0.0027457393,
        "meta_mean_motion_dot": 4.139e-05,
        "meta_mean_motion_ddot": 0,
        "tle_line1": "1 31657U 99025CBP 25349.00596787  .00004139  00000+0  27457-2 0  9995",
        "tle_line2": "2 31657 102.2166 254.1396 0147867  48.4638 312.9088 13.97064465628965"
      },
      "geometry": {
        "type": "Point",
        "coordinates": [
          -89.85830053865939,
          -1.1783525939653845
        ]
      }
    },
    {
      "type": "Feature",
      "properties": {
        "norad_id": 31658,
        "name": "FENGYUN 1C DEB",
        "group": "fengyun-1c-debris",
        "lat": 21.499994981434288,
        "lon": -154.78581989423316,
        "alt_km": 918.477028772365,
        "timestamp": "2025-12-26T21:25:53.293828+00:00",
        "meta_object_name": "FENGYUN 1C DEB",
        "meta_object_id": "1999-025CBQ",
        "meta_epoch": "2025-12-22T19:28:59.685024",
        "meta_mean_motion": 13.98886705,
        "meta_eccentricity": 0.02151336,
        "meta_inclination": 98.1523,
        "meta_ra_of_asc_node": 204.8159,
        "meta_arg_of_pericenter": 294.3668,
        "meta_mean_anomaly": 63.5177,
        "meta_ephemeris_type": 0,
        "meta_classification_type": "U",
        "meta_norad_cat_id": 31658,
        "meta_element_set_no": 999,
        "meta_rev_at_epoch": 69957,
        "meta_bstar": 0.0026851926,
        "meta_mean_motion_dot": 4.685e-05,
        "meta_mean_motion_ddot": 0,
        "tle_line1": "1 31658U 99025CBQ 25356.81180191  .00004685  00000+0  26852-2 0  9995",
        "tle_line2": "2 31658  98.1523 204.8159 0215133 294.3668  63.5177 13.98886705699575"
      },
      "geometry": {
        "type": "Point",
        "coordinates": [
          -154.78581989423316,
          21.499994981434288
        ]
      }
    },
    {
      "type": "Feature",
      "properties": {
        "norad_id": 31660,
        "name": "FENGYUN 1C DEB",
        "group": "fengyun-1c-debris",
        "lat": -71.89400289961267,
        "lon": 154.6120608128963,
        "alt_km": 838.7738340265596,
        "timestamp": "2025-12-26T21:25:53.293838+00:00",
        "meta_object_name": "FENGYUN 1C DEB",
        "meta_object_id": "1999-025CBS",
        "meta_epoch": "2025-12-25T19:00:51.233760",
        "meta_mean_motion": 14.27158223,
        "meta_eccentricity": 0.01023474,
        "meta_inclination": 98.5066,
        "meta_ra_of_asc_node": 0.7825,
        "meta_arg_of_pericenter": 142.3016,
        "meta_mean_anomaly": 218.5394,
        "meta_ephemeris_type": 0,
        "meta_classification_type": "U",
        "meta_norad_cat_id": 31660,
        "meta_element_set_no": 999,
        "meta_rev_at_epoch": 8102,
        "meta_bstar": 0.00055332784,
        "meta_mean_motion_dot": 1.386e-05,
        "meta_mean_motion_ddot": 0,
        "tle_line1": "1 31660U 99025CBS 25359.79225965  .00001386  00000+0  55333-3 0  9999",
        "tle_line2": "2 31660  98.5066   0.7825 0102347 142.3016 218.5394 14.27158223 81026"
      },
      "geometry": {
        "type": "Point",
        "coordinates": [
          154.6120608128963,
          -71.89400289961267
        ]
      }
    },
    {
      "type": "Feature",
      "properties": {
        "norad_id": 31661,
        "name": "FENGYUN 1C DEB",
        "group": "fengyun-1c-debris",
        "lat": -51.274695384917415,
        "lon": -111.09699083463211,
        "alt_km": 785.1593454671747,
        "timestamp": "2025-12-26T21:25:53.293848+00:00",
        "meta_object_name": "FENGYUN 1C DEB",
        "meta_object_id": "1999-025CBT",
        "meta_epoch": "2025-12-24T16:50:35.606400",
        "meta_mean_motion": 14.25524803,
        "meta_eccentricity": 0.00590656,
        "meta_inclination": 98.8598,
        "meta_ra_of_asc_node": 77.9062,
        "meta_arg_of_pericenter": 190.1629,
        "meta_mean_anomaly": 322.7954,
        "meta_ephemeris_type": 0,
        "meta_classification_type": "U",
        "meta_norad_cat_id": 31661,
        "meta_element_set_no": 999,
        "meta_rev_at_epoch": 95883,
        "meta_bstar": 0.0016959684,
        "meta_mean_motion_dot": 4.04e-05,
        "meta_mean_motion_ddot": 0,
        "tle_line1": "1 31661U 99025CBT 25358.70180100  .00004040  00000+0  16960-2 0  9993",
        "tle_line2": "2 31661  98.8598  77.9062 0059065 190.1629 322.7954 14.25524803958839"
      },
      "geometry": {
        "type": "Point",
        "coordinates": [
          -111.09699083463211,
          -51.274695384917415
        ]
      }
    },
    {
      "type": "Feature",
      "properties": {
        "norad_id": 31663,
        "name": "FENGYUN 1C DEB",
        "group": "fengyun-1c-debris",
        "lat": 42.120070736753455,
        "lon": 98.19011201746174,
        "alt_km": 559.9985141165425,
        "timestamp": "2025-12-26T21:25:53.293858+00:00",
        "meta_object_name": "FENGYUN 1C DEB",
        "meta_object_id": "1999-025CBV",
        "meta_epoch": "2025-12-24T00:29:19.607712",
        "meta_mean_motion": 14.76454332,
        "meta_eccentricity": 0.01900004,
        "meta_inclination": 98.8389,
        "meta_ra_of_asc_node": 266.9581,
        "meta_arg_of_pericenter": 201.7959,
        "meta_mean_anomaly": 157.5086,
        "meta_ephemeris_type": 0,
        "meta_classification_type": "U",
        "meta_norad_cat_id": 31663,
        "meta_element_set_no": 999,
        "meta_rev_at_epoch": 99446,
        "meta_bstar": 0.00025673449,
        "meta_mean_motion_dot": 2.328e-05,
        "meta_mean_motion_ddot": 0,
        "tle_line1": "1 31663U 99025CBV 25358.02036583  .00002328  00000+0  25673-3 0  9994",
        "tle_line2": "2 31663  98.8389 266.9581 0190000 201.7959 157.5086 14.76454332994469"
      },
      "geometry": {
        "type": "Point",
        "coordinates": [
          98.19011201746174,
          42.120070736753455
        ]
      }
    }
  ]
}